IRIDIUM 159             
1 43578U 18061K   24083.96109056  .00000040  00000+0  73441-5 0  9993
2 43578  86.3991  37.3832 0002084  85.3650 274.7784 14.34218037296539
IRIDIUM 180             
1 43922U 19002A   24083.75128002  .00000490  00000+0  16804-3 0  9998
2 43922  86.4003 334.3970 0002056  84.6440 275.4991 14.34220838272116
IRIDIUM 176             
1 43923U 19002B   24083.75034790  .00002550  00000+0  40071-3 0  9991
2 43923  86.6135 334.4250 0002283  93.1532 266.9947 14.72225740279275
IRIDIUM 168             
1 43924U 19002C   24083.74493726  .00000365  00000+0  12321-3 0  9998
2 43924  86.4005 334.4537 0002148  85.5473 274.5968 14.34218762272092
IRIDIUM 173             
1 43925U 19002D   24083.73225201  .00000572  00000+0  19709-3 0  9996
2 43925  86.4003 334.3807 0002004  86.7073 273.4352 14.34218437272072
IRIDIUM 169             
1 43926U 19002E   24083.84991325  .00000860  00000+0  27447-3 0  9994
2 43926  86.4288   5.9224 0003838 119.4407 240.7175 14.38616990273007
IRIDIUM 172             
1 43927U 19002F   24083.79567363  .00000618  00000+0  21352-3 0  9990
2 43927  86.4003 334.3603 0002106  83.9541 276.1895 14.34223172272096
IRIDIUM 175             
1 43928U 19002G   24083.88048831  .00002090  00000+0  32761-3 0  9997
2 43928  86.1501 312.3367 0002290  86.8010 273.3468 14.72227012279289
